{"type": "FeatureCollection", "features": [{"type": "Feature", "properties": {"LAYER": "plate boundary", "Name": "AN\\SA", "Source": "by Peter Bird, 1999", "PlateA": "AN", "PlateB": "SA", "Type": "subduction", "note": "extracted from PB2002_boundaries.json (Bird 2003), github.com/fraxen/tectonicplates"}, "geometry": {"type": "LineString", "coordinates": [[-76.4833, -52.0684], [-76.6257, -51.3775], [-76.7565, -50.7289], [-76.9898, -49.8446], [-77.024, -49.1923], [-76.9255, -48.5065], [-76.6497, -47.8746], [-76.321, -47.4777], [-75.9972, -47.0799], [-75.9581, -46.422], [-76.0062, -45.6585]]}}, {"type": "Feature", "properties": {"LAYER": "plate boundary", "Name": "SC/AN", "Source": "Klepeis and Lawver, 1996", "PlateA": "SC", "PlateB": "AN", "Type": "subduction", "note": "extracted from PB2002_boundaries.json (Bird 2003), github.com/fraxen/tectonicplates"}, "geometry": {"type": "LineString", "coordinates": [[-76.4833, -52.0684], [-76.3121, -52.9285], [-76.0197, -53.4352], [-75.7203, -53.9412], [-75.2389, -54.2941], [-74.7492, -54.6451], [-74.1202, -55.0037], [-73.4799, -55.359], [-72.9952, -55.6654], [-72.2772, -55.9624], [-71.5481, -56.2552], [-70.4011, -56.622], [-69.2561, -56.8522], [-68.0972, -57.0717], [-67.1018, -57.5019], [-65.8672, -57.7363], [-64.617, -57.9586]]}}]}